[{"OBJECT_NAME":"STARLINK-4076","OBJECT_ID":"2022-053M","EPOCH":"2026-03-09T12:36:54.324864","MEAN_MOTION":15.08834598,"ECCENTRICITY":0.00014802,"INCLINATION":53.2178,"RA_OF_ASC_NODE":154.8591,"ARG_OF_PERICENTER":98.2292,"MEAN_ANOMALY":261.8868,"EPHEMERIS_TYPE":0,"CLASSIFICATION_TYPE":"U","NORAD_CAT_ID":52667,"ELEMENT_SET_NO":999,"REV_AT_EPOCH":21102,"BSTAR":5.0402057e-5,"MEAN_MOTION_DOT":5.14e-6,"MEAN_MOTION_DDOT":0},{"OBJECT_NAME":"EXPLORER 31 (ISIS-X)","OBJECT_ID":"1965-098B","EPOCH":"2026-03-09T10:05:04.973280","MEAN_MOTION":12.08259378,"ECCENTRICITY":0.14227111,"INCLINATION":79.7728,"RA_OF_ASC_NODE":72.1189,"ARG_OF_PERICENTER":330.1362,"MEAN_ANOMALY":22.5343,"EPHEMERIS_TYPE":0,"CLASSIFICATION_TYPE":"U","NORAD_CAT_ID":1806,"ELEMENT_SET_NO":999,"REV_AT_EPOCH":63664,"BSTAR":8.1479819e-5,"MEAN_MOTION_DOT":2.32e-6,"MEAN_MOTION_DDOT":0}]
